COSMOS 2251 DEB         
1 40810U 93036BWP 17121.23878354  .00000396  00000-0  11881-3 0  9996
2 40810  74.0406 212.4994 0022023  59.0572 301.2746 14.45790468161014
